[{"OBJECT_NAME":"STARLINK-5325","OBJECT_ID":"2023-010Z","EPOCH":"2026-03-09T23:31:08.435136","MEAN_MOTION":14.98337252,"ECCENTRICITY":0.00032307,"INCLINATION":70.0015,"RA_OF_ASC_NODE":23.6853,"ARG_OF_PERICENTER":268.8951,"MEAN_ANOMALY":91.1838,"EPHEMERIS_TYPE":0,"CLASSIFICATION_TYPE":"U","NORAD_CAT_ID":55292,"ELEMENT_SET_NO":999,"REV_AT_EPOCH":17331,"BSTAR":5.7518149e-5,"MEAN_MOTION_DOT":5.93e-6,"MEAN_MOTION_DDOT":0},{"OBJECT_NAME":"CZ-4C R\/B","OBJECT_ID":"2021-109B","EPOCH":"2026-03-09T22:38:24.916416","MEAN_MOTION":14.75647247,"ECCENTRICITY":0.01171981,"INCLINATION":98.2159,"RA_OF_ASC_NODE":140.2327,"ARG_OF_PERICENTER":108.8459,"MEAN_ANOMALY":252.5502,"EPHEMERIS_TYPE":0,"CLASSIFICATION_TYPE":"U","NORAD_CAT_ID":49496,"ELEMENT_SET_NO":999,"REV_AT_EPOCH":23090,"BSTAR":0.00015081956,"MEAN_MOTION_DOT":1.092e-5,"MEAN_MOTION_DDOT":0}]
